SOYUZ-MS 28             
1 66664U 25275A   25359.56752749  .00014081  00000+0  25591-3 0  9996
2 66664  51.6318  78.9495 0003224 299.9641  60.1027 15.49813539  4432
1998-067XS              
1 66906U 98067XS  25359.48757370  .00028077  00000+0  47654-3 0  9994
2 66906  51.6324  79.1676 0002728 267.8022  92.2655 15.51255627  3597
1998-067XT              
1 66907U 98067XT  25358.44440007  .00067981  00000+0  10726-2 0  9992
2 66907  51.6313  84.2012 0003885 298.2919  61.7678 15.52879993  3433
1998-067XU              
1 66908U 98067XU  25358.44335423  .00067317  00000+0  10586-2 0  9995
2 66908  51.6323  84.1936 0003863 296.7785  63.2809 15.52977314  3438
SILVERSAT               
1 66909U 98067XV  25358.50619156  .00074602  00000+0  11618-2 0  9993
2 66909  51.6310  83.8633 0003824 300.8028  59.2585 15.53202951  3445
1998-067XW              
1 66910U 98067XW  25359.21225715  .00065225  00000+0  10169-2 0  9999
2 66910  51.6308  80.3284 0003837 278.3824  81.6731 15.53228928  3551
1998-067XX              
1 66911U 98067XX  25359.59430019  .00075561  00000+0  11507-2 0  9997
2 66911  51.6302  78.3793 0003520 286.8967  73.1637 15.53814599  3601
1998-067XY              
1 66912U 98067XY  25359.60764690  .00049931  00000+0  80560-3 0  9993
2 66912  51.6317  78.4687 0003813 296.0372  64.0225 15.52392127  3608
